[{"OBJECT_NAME":"STARLINK-31685","OBJECT_ID":"2024-076Q","EPOCH":"2026-03-09T05:03:49.958496","MEAN_MOTION":15.27574062,"ECCENTRICITY":1.913e-5,"INCLINATION":43.0015,"RA_OF_ASC_NODE":11.3381,"ARG_OF_PERICENTER":282.1997,"MEAN_ANOMALY":77.8834,"EPHEMERIS_TYPE":0,"CLASSIFICATION_TYPE":"U","NORAD_CAT_ID":59578,"ELEMENT_SET_NO":999,"REV_AT_EPOCH":10643,"BSTAR":-6.1183873e-5,"MEAN_MOTION_DOT":-1.944e-5,"MEAN_MOTION_DDOT":0},{"OBJECT_NAME":"FLOCK 4G-27","OBJECT_ID":"2025-009AJ","EPOCH":"2026-03-09T18:05:51.175392","MEAN_MOTION":15.27199247,"ECCENTRICITY":7.564e-5,"INCLINATION":97.3976,"RA_OF_ASC_NODE":150.8631,"ARG_OF_PERICENTER":322.4974,"MEAN_ANOMALY":37.6212,"EPHEMERIS_TYPE":0,"CLASSIFICATION_TYPE":"U","NORAD_CAT_ID":62641,"ELEMENT_SET_NO":999,"REV_AT_EPOCH":6371,"BSTAR":0.00047455305,"MEAN_MOTION_DOT":0.00012587,"MEAN_MOTION_DDOT":0}]
